SARSAT 7 (NOAA 15)      
1 25338U 98030A   25108.08211616  .00000352  00000+0  16231-3 0  9997
2 25338  98.5403 134.4657 0010991 147.8270 212.3583 14.26944280400919
GPS BIIR-08             
1 27663U 03005A   25107.89080878  .00000015  00000+0  00000+0 0  9999
2 27663  54.9930 231.8716 0143125  50.0499   3.2384  2.00557602162788
GPS BIIR-11             
1 28190U 04009A   25107.34877900 -.00000014  00000+0  00000+0 0  9990
2 28190  55.1914 292.8522 0103240 158.4913  19.8055  2.00569292154438
GPS BIIR-13             
1 28474U 04045A   25108.27267273 -.00000072  00000+0  00000+0 0  9998
2 28474  55.3438 341.9828 0166548 302.2178 244.8655  2.00558836149895
SARSAT 10 (NOAA 18)     
1 28654U 05018A   25108.45641003  .00000347  00000+0  20755-3 0  9993
2 28654  98.8426 188.5174 0013056 277.2158  82.7530 14.13578005 26383
GPS BIIR-14M            
1 28874U 05038A   25107.31227317 -.00000011  00000+0  00000+0 0  9997
2 28874  55.2360 290.3252 0132710 289.8662 247.8722  2.00564649143297
METEOSAT-9 (MSG-2)      
1 28912U 05049B   25107.86341031  .00000136  00000+0  00000+0 0  9999
2 28912   8.3905  58.1881 0001223 358.1106 146.4190  1.00270947  2740
GOES 13                 
1 29155U 06018A   25108.17961427 -.00000250  00000+0  00000+0 0  9996
2 29155   3.4245  81.5866 0065311 264.5396  80.3587  0.98834225 69172
GPS BIIR-16M            
1 29601U 06052A   25107.63196396  .00000015  00000+0  00000+0 0  9993
2 29601  55.0330 230.8828 0086852  85.7476 275.2378  2.00559699134875
GPS BIIR-17M            
1 32260U 07047A   25107.44375857  .00000030  00000+0  00000+0 0  9990
2 32260  53.7903  97.6483 0159701  80.3370 281.4631  2.00549642128270
GPS BIIR-18M            
1 32384U 07062A   25107.00450266 -.00000014  00000+0  00000+0 0  9997
2 32384  55.3826 291.2465 0030660 154.2751  19.3485  2.00564478126960
SARSAT 12 (NOAA 19)     
1 33591U 09005A   25108.10041032  .00000354  00000+0  21230-3 0  9994
2 33591  99.0010 172.5020 0014465 148.8903 211.3128 14.13342587834698
GOES 14                 
1 35491U 09033A   25107.51234698 -.00000057  00000+0  00000+0 0  9991
2 35491   0.5769  88.6385 0000580  22.9093 170.4586  1.00271002  2328
GOES 15                 
1 36411U 10008A   25107.90915155  .00000047  00000+0  00000+0 0  9993
2 36411   0.1718  86.0993 0001833 195.7421 313.1057  1.00274620 55375
GSAT0101 (GALILEO-PFM)  
1 37846U 11060A   25106.40114140 -.00000082  00000+0  00000+0 0  9994
2 37846  57.1027 353.3292 0004042  18.6205 341.4438  1.70476032 83841
GSAT0102 (GALILEO-FM2)  
1 37847U 11060B   25104.87055703 -.00000087  00000+0  00000+0 0  9998
2 37847  57.1041 353.3710 0004859 351.0412 194.9929  1.70476205 83829
LUCH 5A                 
1 37951U 11074B   25107.63860176 -.00000035  00000+0  00000+0 0  9997
2 37951   7.6683  80.1799 0002386 311.1464 211.7052  1.00276162 48780
METEOSAT-10 (MSG-3)     
1 38552U 12035B   25108.17669987  .00000006  00000+0  00000+0 0  9997
2 38552   3.6671  62.0395 0000869 342.3775 226.2777  1.00264904 46950
SARSAT 13 (METOP-B)     
1 38771U 12049A   25108.45053047  .00000254  00000+0  13558-3 0  9991
2 38771  98.5822 164.1207 0001844 118.5476 241.5888 14.21480041652916
GPS BIIF-3              
1 38833U 12053A   25107.53490136  .00000038  00000+0  00000+0 0  9991
2 38833  53.5306 161.0274 0163814  60.1102 301.5891  2.00562252 91790
GSAT0103 (GALILEO-FM3)  
1 38857U 12055A   25107.61388077  .00000060  00000+0  00000+0 0  9993
2 38857  55.5567 113.2343 0006046 283.6494  76.3027  1.70473581 77752
GPS BIIF-4              
1 39166U 13023A   25106.89903771 -.00000011  00000+0  00000+0 0  9993
2 39166  54.8518 286.3024 0133321  47.4491 313.6552  2.00561605 87336
INSAT-3D                
1 39216U 13038B   25107.90461354 -.00000329  00000+0  00000+0 0  9996
2 39216   0.8241  88.2432 0001636 250.1174 323.0506  1.00276995 42814
GPS BIIF-5              
1 39533U 14008A   25107.39731588  .00000035  00000+0  00000+0 0  9991
2 39533  53.6088 166.6787 0077726 224.2889 135.1657  2.00559905 81697
LUCH 5V                 
1 39727U 14023A   25107.98118340 -.00000258  00000+0  00000+0 0  9991
2 39727   4.0692  73.7205 0002756 333.2484 247.3485  1.00269642558249
GPS BIIF-6              
1 39741U 14026A   25107.67967956 -.00000078  00000+0  00000+0 0  9991
2 39741  56.6613 348.0616 0035947 319.9690  39.8158  2.00578582 80005
GPS BIIF-7              
1 40105U 14045A   25107.26503978  .00000040  00000+0  00000+0 0  9991
2 40105  55.0849 105.4561 0027979 117.4759 242.8198  2.00557036 78426
GSAT0201 (GALILEO 5)    
1 40128U 14050A   25106.53900861 -.00000035  00000+0  00000+0 0  9998
2 40128  49.3407 290.8212 1626126 162.9096 203.2841  1.85519851 70409
GSAT0202 (GALILEO 6)    
1 40129U 14050B   25105.17917203 -.00000046  00000+0  00000+0 0  9998
2 40129  49.3579 289.9571 1625873 163.6355 202.3011  1.85520561 72547
GPS BIIF-8              
1 40294U 14068A   25107.13375025 -.00000050  00000+0  00000+0 0  9993
2 40294  56.6763  47.4165 0058006  64.1711 296.4142  2.00579150 76662
GLONASS-K 2             
1 40315U 14075A   25105.80545015  .00000026  00000+0  00000+0 0  9997
2 40315  63.6151 205.1713 0020612 207.8766 152.0461  2.13101468 80747
GPS BIIF-9              
1 40534U 15013A   25107.77877668  .00000012  00000+0  00000+0 0  9998
2 40534  53.2517 221.7798 0097676  34.7387 325.9026  2.00548835 73297
GSAT0203 (GALILEO 7)    
1 40544U 15017A   25103.83346397 -.00000091  00000+0  00000+0 0  9994
2 40544  56.8953 353.2920 0005869 286.6014  73.3816  1.70476002 62546
GSAT0204 (GALILEO 8)    
1 40545U 15017B   25105.26157800 -.00000086  00000+0  00000+0 0  9997
2 40545  56.9042 353.2698 0002738 286.3930  73.6259  1.70475774 24957
GPS BIIF-10             
1 40730U 15033A   25106.94132442 -.00000010  00000+0  00000+0 0  9999
2 40730  54.3320 284.6243 0104843  24.6226 335.8575  2.00551233 71469
METEOSAT-11 (MSG-4)     
1 40732U 15034A   25108.17852436  .00000074  00000+0  00000+0 0  9990
2 40732   2.1397  72.2502 0000857 322.1289 245.9054  1.00279247 35756
GSAT0205 (GALILEO 9)    
1 40889U 15045A   25106.78952639  .00000006  00000+0  00000+0 0  9991
2 40889  55.0918 233.3814 0004689  46.4253 313.5902  1.70474035 59743
GSAT0206 (GALILEO 10)   
1 40890U 15045B   25105.83697731  .00000001  00000+0  00000+0 0  9992
2 40890  55.0909 233.4030 0002608  48.9052 311.0876  1.70474041 59750
GPS BIIF-11             
1 41019U 15062A   25106.49667866 -.00000054  00000+0  00000+0 0  9993
2 41019  56.6529  47.2974 0102854 228.6542 130.4467  2.00566840 69272
ELEKTRO-L 2             
1 41105U 15074A   25107.24548116 -.00000105  00000+0  00000+0 0  9999
2 41105   5.6172  75.7516 0002039 242.3813 321.3802  1.00273027 34235
GSAT0209 (GALILEO 12)   
1 41174U 15079A   25107.76534677  .00000060  00000+0  00000+0 0  9993
2 41174  55.5763 112.9421 0005518 315.8708  44.1038  1.70474397 58107
GSAT0208 (GALILEO 11)   
1 41175U 15079B   25106.81214905  .00000058  00000+0  00000+0 0  9995
2 41175  55.5743 112.9656 0004881 315.7300  44.2514  1.70474329 57929
GPS BIIF-12             
1 41328U 16007A   25108.07684843  .00000048  00000+0  00000+0 0  9998
2 41328  55.2706 106.3328 0087684 242.3560 116.7630  2.00572722 67355
GSAT0211 (GALILEO 14)   
1 41549U 16030A   25104.58953909 -.00000006  00000+0  00000+0 0  9998
2 41549  55.2403 233.4812 0002484  11.2906 348.6763  1.70474122 55346
GSAT0210 (GALILEO 13)   
1 41550U 16030B   25107.78026778  .00000009  00000+0  00000+0 0  9992
2 41550  55.2393 233.3919 0002214 207.7508 152.2192  1.70474151 55396
INSAT-3DR               
1 41752U 16054A   25107.84211605 -.00000068  00000+0  00000+0 0  9990
2 41752   0.1351  88.9609 0010735 187.9554 306.4575  1.00273434 31554
GSAT0207 (GALILEO 15)   
1 41859U 16069A   25106.88561522  .00000057  00000+0  00000+0 0  9990
2 41859  55.2435 112.8935 0005876 304.3918  55.5728  1.70474365 52136
GSAT0212 (GALILEO 16)   
1 41860U 16069B   25106.15297145  .00000056  00000+0  00000+0 0  9998
2 41860  55.2403 112.9097 0004318 324.7757  35.2182  1.70474584 52378
GSAT0213 (GALILEO 17)   
1 41861U 16069C   25107.69419862  .00000059  00000+0  00000+0 0  9994
2 41861  55.2435 112.8742 0005922 289.6853  70.2695  1.70474856 52390
GSAT0214 (GALILEO 18)   
1 41862U 16069D   25107.83976179  .00000059  00000+0  00000+0 0  9990
2 41862  55.2424 112.8634 0004962 293.2445  66.7218  1.70474659 52392
GOES 16                 
1 41866U 16071A   25108.58936955 -.00000209  00000+0  00000+0 0  9996
2 41866   0.0548 281.7222 0000911 173.5316 244.5682  1.00132490 30830
GSAT-17                 
1 42815U 17040B   25107.33835337 -.00000248  00000+0  00000+0 0  9995
2 42815   0.0816  84.5526 0003110 226.1647 110.3000  1.00272785 28513
GSAT0215 (GALILEO 19)   
1 43055U 17079A   25106.57023768  .00000005  00000+0  00000+0 0  9996
2 43055  55.2167 233.2444 0000711 253.6303 106.3373  1.70474776 45711
GSAT0216 (GALILEO 20)   
1 43056U 17079B   25108.03487059  .00000010  00000+0  00000+0 0  9993
2 43056  55.2172 233.2042 0002097 280.7776  79.1819  1.70474897 45723
GSAT0217 (GALILEO 21)   
1 43057U 17079C   25105.32254113 -.00000002  00000+0  00000+0 0  9998
2 43057  55.2161 233.2769 0001665 317.1352  42.8187  1.70474828 45698
GSAT0218 (GALILEO 22)   
1 43058U 17079D   25107.30235636  .00000008  00000+0  00000+0 0  9993
2 43058  55.2152 233.2202 0002558 274.1769  85.7736  1.70474785 45752
GOES 17                 
1 43226U 18022A   25107.92266889 -.00000084  00000+0  00000+0 0  9996
2 43226   0.0206 301.5083 0002506 145.1525 347.4128  1.00272559 26179
GSAT0221 (GALILEO 25)   
1 43564U 18060A   25107.20443046 -.00000079  00000+0  00000+0 0  9990
2 43564  57.2780 353.2772 0004085 313.2871  46.7283  1.70475663 41918
GSAT0222 (GALILEO 26)   
1 43565U 18060B   25106.83680545 -.00000080  00000+0  00000+0 0  9998
2 43565  57.2815 353.2897 0002978 286.1392  73.8776  1.70475460 41947
GSAT0219 (GALILEO 23)   
1 43566U 18060C   25106.47167014 -.00000081  00000+0  00000+0 0  9991
2 43566  57.2809 353.3012 0003857 324.7722  35.2520  1.70475644 41914
